[{"OBJECT_NAME":"COSMOS 2361","OBJECT_ID":"1998-076A","EPOCH":"2026-04-04T23:50:37.690656","MEAN_MOTION":13.73230687,"ECCENTRICITY":0.00304567,"INCLINATION":82.9304,"RA_OF_ASC_NODE":260.3269,"ARG_OF_PERICENTER":312.4107,"MEAN_ANOMALY":165.2879,"EPHEMERIS_TYPE":0,"CLASSIFICATION_TYPE":"U","NORAD_CAT_ID":25590,"ELEMENT_SET_NO":999,"REV_AT_EPOCH":36665,"BSTAR":3.7091957e-5,"MEAN_MOTION_DOT":4.9e-7,"MEAN_MOTION_DDOT":0},{"OBJECT_NAME":"COSMOS 2378","OBJECT_ID":"2001-023A","EPOCH":"2026-04-04T23:22:28.004736","MEAN_MOTION":13.7415376,"ECCENTRICITY":0.003174,"INCLINATION":82.9226,"RA_OF_ASC_NODE":275.7706,"ARG_OF_PERICENTER":251.0736,"MEAN_ANOMALY":218.7094,"EPHEMERIS_TYPE":0,"CLASSIFICATION_TYPE":"U","NORAD_CAT_ID":26818,"ELEMENT_SET_NO":999,"REV_AT_EPOCH":24478,"BSTAR":5.0209616e-5,"MEAN_MOTION_DOT":6.2e-7,"MEAN_MOTION_DDOT":0},{"OBJECT_NAME":"COSMOS 2389","OBJECT_ID":"2002-026A","EPOCH":"2026-04-05T03:40:25.803552","MEAN_MOTION":13.75167062,"ECCENTRICITY":0.00476607,"INCLINATION":82.9517,"RA_OF_ASC_NODE":223.0252,"ARG_OF_PERICENTER":103.2812,"MEAN_ANOMALY":72.1748,"EPHEMERIS_TYPE":0,"CLASSIFICATION_TYPE":"U","NORAD_CAT_ID":27436,"ELEMENT_SET_NO":999,"REV_AT_EPOCH":19707,"BSTAR":6.755109e-5,"MEAN_MOTION_DOT":8.1e-7,"MEAN_MOTION_DDOT":0},{"OBJECT_NAME":"COSMOS 2398","OBJECT_ID":"2003-023A","EPOCH":"2026-04-05T05:10:29.524800","MEAN_MOTION":13.72397983,"ECCENTRICITY":0.00320882,"INCLINATION":82.9521,"RA_OF_ASC_NODE":189.0819,"ARG_OF_PERICENTER":155.5979,"MEAN_ANOMALY":232.2914,"EPHEMERIS_TYPE":0,"CLASSIFICATION_TYPE":"U","NORAD_CAT_ID":27818,"ELEMENT_SET_NO":999,"REV_AT_EPOCH":14373,"BSTAR":7.1577877e-5,"MEAN_MOTION_DOT":8.1e-7,"MEAN_MOTION_DDOT":0},{"OBJECT_NAME":"COSMOS 2407","OBJECT_ID":"2004-028A","EPOCH":"2026-04-05T05:23:28.966848","MEAN_MOTION":13.76328312,"ECCENTRICITY":0.00407001,"INCLINATION":82.9583,"RA_OF_ASC_NODE":128.8784,"ARG_OF_PERICENTER":96.349,"MEAN_ANOMALY":334.7253,"EPHEMERIS_TYPE":0,"CLASSIFICATION_TYPE":"U","NORAD_CAT_ID":28380,"ELEMENT_SET_NO":999,"REV_AT_EPOCH":8984,"BSTAR":6.2388607e-5,"MEAN_MOTION_DOT":7.7e-7,"MEAN_MOTION_DDOT":0},{"OBJECT_NAME":"COSMOS 2414","OBJECT_ID":"2005-002A","EPOCH":"2026-04-05T01:49:10.282944","MEAN_MOTION":13.87918598,"ECCENTRICITY":0.00401772,"INCLINATION":82.9452,"RA_OF_ASC_NODE":98.9519,"ARG_OF_PERICENTER":175.7911,"MEAN_ANOMALY":184.3598,"EPHEMERIS_TYPE":0,"CLASSIFICATION_TYPE":"U","NORAD_CAT_ID":28521,"ELEMENT_SET_NO":999,"REV_AT_EPOCH":7367,"BSTAR":2.6874155e-5,"MEAN_MOTION_DOT":4.8e-7,"MEAN_MOTION_DDOT":0},{"OBJECT_NAME":"COSMOS 2429","OBJECT_ID":"2007-038A","EPOCH":"2026-04-05T03:40:59.484000","MEAN_MOTION":13.75161036,"ECCENTRICITY":0.00396807,"INCLINATION":82.9767,"RA_OF_ASC_NODE":259.7044,"ARG_OF_PERICENTER":79.9138,"MEAN_ANOMALY":280.6491,"EPHEMERIS_TYPE":0,"CLASSIFICATION_TYPE":"U","NORAD_CAT_ID":32052,"ELEMENT_SET_NO":999,"REV_AT_EPOCH":93161,"BSTAR":5.2257928e-5,"MEAN_MOTION_DOT":6.6e-7,"MEAN_MOTION_DDOT":0},{"OBJECT_NAME":"COSMOS 2454","OBJECT_ID":"2009-039A","EPOCH":"2026-04-05T06:18:36.553248","MEAN_MOTION":13.89944671,"ECCENTRICITY":0.00205905,"INCLINATION":82.9527,"RA_OF_ASC_NODE":82.5725,"ARG_OF_PERICENTER":106.407,"MEAN_ANOMALY":265.1394,"EPHEMERIS_TYPE":0,"CLASSIFICATION_TYPE":"U","NORAD_CAT_ID":35635,"ELEMENT_SET_NO":999,"REV_AT_EPOCH":84727,"BSTAR":5.6839903e-5,"MEAN_MOTION_DOT":8.6e-7,"MEAN_MOTION_DDOT":0},{"OBJECT_NAME":"COSMOS 2463","OBJECT_ID":"2010-017A","EPOCH":"2026-04-05T01:04:17.651136","MEAN_MOTION":13.71660662,"ECCENTRICITY":0.00355982,"INCLINATION":82.9582,"RA_OF_ASC_NODE":303.4651,"ARG_OF_PERICENTER":335.0092,"MEAN_ANOMALY":177.7866,"EPHEMERIS_TYPE":0,"CLASSIFICATION_TYPE":"U","NORAD_CAT_ID":36519,"ELEMENT_SET_NO":999,"REV_AT_EPOCH":79790,"BSTAR":5.5831913e-5,"MEAN_MOTION_DOT":6.5e-7,"MEAN_MOTION_DDOT":0}]
