COSMOS 2361             
1 25590U 98076A   26094.99349179  .00000049  00000+0  37092-4 0  9990
2 25590  82.9304 260.3269 0030456 312.4107 165.2879 13.73230687366657
COSMOS 2378             
1 26818U 01023A   26094.97393524  .00000062  00000+0  50210-4 0  9993
2 26818  82.9226 275.7706 0031740 251.0736 218.7094 13.74153760244782
COSMOS 2389             
1 27436U 02026A   26095.15307643  .00000081  00000+0  67551-4 0  9999
2 27436  82.9517 223.0252 0047660 103.2812  72.1748 13.75167062197073
COSMOS 2398             
1 27818U 03023A   26095.21561950  .00000081  00000+0  71578-4 0  9995
2 27818  82.9521 189.0819 0032088 155.5979 232.2914 13.72397983143736
COSMOS 2407             
1 28380U 04028A   26095.22464082  .00000077  00000+0  62389-4 0  9990
2 28380  82.9583 128.8784 0040700  96.3490 334.7253 13.76328312 89840
COSMOS 2414             
1 28521U 05002A   26095.07581346  .00000048  00000+0  26874-4 0  9993
2 28521  82.9452  98.9519 0040177 175.7911 184.3598 13.87918598 73671
COSMOS 2429             
1 32052U 07038A   26095.15346625  .00000066  00000+0  52258-4 0  9991
2 32052  82.9767 259.7044 0039680  79.9138 280.6491 13.75161036931610
COSMOS 2454             
1 35635U 09039A   26095.26292307  .00000086  00000+0  56840-4 0  9996
2 35635  82.9527  82.5725 0020590 106.4070 265.1394 13.89944671847270
COSMOS 2463             
1 36519U 10017A   26095.04464874  .00000065  00000+0  55832-4 0  9999
2 36519  82.9582 303.4651 0035598 335.0092 177.7866 13.71660662797906
